NORAD_CAT_ID,OBJECT_NAME,OBJECT_TYPE,EPOCH,MEAN_MOTION,ECCENTRICITY,INCLINATION,RA_OF_ASC_NODE,ARG_OF_PERICENTER,MEAN_ANOMALY,BSTAR,MEAN_MOTION_DOT,MEAN_MOTION_DDOT,TLE_LINE0,TLE_LINE1,TLE_LINE2,SEMIMAJOR_AXIS,PERIOD,APOGEE,PERIGEE,DECAYED
52467.0,STARLINK-3873,PAYLOAD,2024-07-03 13:16:46,15.08829577,0.0001327,53.2166,296.0903,63.3519,296.7609,-0.00010186,-1.908e-05,0.0,0 STARLINK-3873,1 52467U 22049S   24185.55331543 -.00001908  00000-0 -10186-3 0  9999,2 52467  53.2166 296.0903 0001327  63.3519 296.7609 15.08829577119695,6917.912,95.438,540.695,538.859,0.0
52467.0,STARLINK-3873,PAYLOAD,2024-07-03 16:27:32,15.08834171,0.0001216,53.2164,295.4921,77.1626,282.9502,-4.4832e-05,-1.001e-05,0.0,0 STARLINK-3873,1 52467U 22049S   24185.68579028 -.00001001  00000-0 -44832-4 0  9995,2 52467  53.2164 295.4921 0001216  77.1626 282.9502 15.08834171119713,6917.898,95.438,540.604,538.922,0.0
52467.0,STARLINK-3873,PAYLOAD,2024-07-04 00:24:27,15.08842797,0.0001215,53.2166,294.0045,76.9882,283.1245,-7.7204e-05,-1.516e-05,0.0,0 STARLINK-3873,1 52467U 22049S   24186.01698570 -.00001516  00000-0 -77204-4 0  9997,2 52467  53.2166 294.0045 0001215  76.9882 283.1245 15.08842797119762,6917.872,95.437,540.577,538.896,0.0
52467.0,STARLINK-3873,PAYLOAD,2024-07-04 14:42:55,15.08847103,0.0001188,53.2164,291.333,88.4899,271.623,7.585e-05,9.2e-06,0.0,0 STARLINK-3873,1 52467U 22049S   24186.61313990  .00000920  00000-0  75850-4 0  9994,2 52467  53.2164 291.3330 0001188  88.4899 271.6230 15.08847103119696,6917.859,95.437,540.546,538.902,0.0
52467.0,STARLINK-3873,PAYLOAD,2024-07-05 12:58:19,15.08845631,0.0001243,53.2154,287.1694,80.2754,279.8378,9.1189e-05,1.164e-05,0.0,0 STARLINK-3873,1 52467U 22049S   24187.54050051  .00001164  00000-0  91189-4 0  9997,2 52467  53.2154 287.1694 0001243  80.2754 279.8378 15.08845631119993,6917.863,95.437,540.588,538.868,0.0
52467.0,STARLINK-3873,PAYLOAD,2024-07-06 12:49:06,15.08842694,0.0001414,53.2187,282.7078,94.8364,265.279,-8.5834e-05,-1.654e-05,0.0,0 STARLINK-3873,1 52467U 22049S   24188.53410803 -.00001654  00000-0 -85834-4 0  9998,2 52467  53.2187 282.7078 0001414  94.8364 265.2790 15.08842694120146,6917.872,95.437,540.715,538.759,0.0
52467.0,STARLINK-3873,PAYLOAD,2024-07-07 09:29:07,15.0883935,0.0001411,53.2161,278.8439,78.356,281.759,3.4595e-06,-2.33e-06,0.0,0 STARLINK-3873,1 52467U 22049S   24189.39522722 -.00000233  00000-0  34595-5 0  9997,2 52467  53.2161 278.8439 0001411  78.3560 281.7590 15.08839350120110,6917.882,95.438,540.723,538.771,0.0
52467.0,STARLINK-3873,PAYLOAD,2024-07-08 12:30:40,15.08837018,0.0001386,53.2174,273.7875,92.485,267.6301,8.8824e-05,1.126e-05,0.0,0 STARLINK-3873,1 52467U 22049S   24190.52130676  .00001126  00000-0  88824-4 0  9991,2 52467  53.2174 273.7875 0001386  92.4850 267.6301 15.08837018120440,6917.89,95.438,540.713,538.796,0.0
52467.0,STARLINK-3873,PAYLOAD,2024-07-08 22:02:59,15.08839247,0.0001375,53.2175,272.0033,91.4554,268.6596,7.0168e-05,8.29e-06,0.0,0 STARLINK-3873,1 52467U 22049S   24190.91874627  .00000829  00000-0  70168-4 0  9996,2 52467  53.2175 272.0033 0001375  91.4554 268.6596 15.08839247120349,6917.883,95.438,540.699,538.796,0.0
52467.0,STARLINK-3873,PAYLOAD,2024-07-09 12:21:28,15.08838733,0.0001558,53.2182,269.3306,101.7062,258.4105,3.3884e-05,2.51e-06,0.0,0 STARLINK-3873,1 52467U 22049S   24191.51490875  .00000251  00000-0  33884-4 0  9995,2 52467  53.2182 269.3306 0001558 101.7062 258.4105 15.08838733120433,6917.884,95.438,540.827,538.671,0.0
52467.0,STARLINK-3873,PAYLOAD,2024-07-10 12:12:15,15.08839258,0.000184,53.2181,264.8702,105.8734,254.2461,-5.518e-05,-1.166e-05,0.0,0 STARLINK-3873,1 52467U 22049S   24192.50851299 -.00001166  00000-0 -55180-4 0  9997,2 52467  53.2181 264.8702 0001840 105.8734 254.2461 15.08839258120743,6917.883,95.438,541.021,538.475,0.0
52467.0,STARLINK-3873,PAYLOAD,2024-07-11 13:38:25,15.0883748,0.0001483,53.2172,260.1118,102.0833,258.0325,1.3467e-05,-7.4e-07,0.0,0 STARLINK-3873,1 52467U 22049S   24193.56835461 -.00000074  00000-0  13467-4 0  9995,2 52467  53.2172 260.1118 0001483 102.0833 258.0325 15.08837480120741,6917.888,95.438,540.779,538.727,0.0
52467.0,STARLINK-3873,PAYLOAD,2024-07-12 11:53:49,15.08844352,0.000141,53.2167,255.9459,89.8592,270.2562,2.9037e-05,1.74e-06,0.0,0 STARLINK-3873,1 52467U 22049S   24194.49571270  .00000174  00000-0  29037-4 0  9993,2 52467  53.2167 255.9459 0001410  89.8592 270.2562 15.08844352120889,6917.867,95.437,540.708,538.757,0.0
52467.0,STARLINK-3873,PAYLOAD,2024-07-12 21:26:08,15.08837505,0.0001406,53.2163,254.1613,90.5928,269.5226,0.00012824,1.753e-05,0.0,0 STARLINK-3873,1 52467U 22049S   24194.89315345  .00001753  00000-0  12824-3 0  9995,2 52467  53.2163 254.1613 0001406  90.5928 269.5226 15.08837505120942,6917.888,95.438,540.726,538.78,0.0
52467.0,STARLINK-3873,PAYLOAD,2024-07-13 03:47:40,15.08841541,0.0001405,53.2164,252.9721,87.7669,272.3484,6.0115e-05,6.69e-06,0.0,0 STARLINK-3873,1 52467U 22049S   24195.15811324  .00000669  00000-0  60115-4 0  9995,2 52467  53.2164 252.9721 0001405  87.7669 272.3484 15.08841541121144,6917.876,95.437,540.713,538.769,0.0
52467.0,STARLINK-3873,PAYLOAD,2024-07-13 10:09:13,15.08846571,0.0001328,53.2156,251.7822,93.8869,266.2274,6.2375e-05,7.05e-06,0.0,0 STARLINK-3873,1 52467U 22049S   24195.42306920  .00000705  00000-0  62375-4 0  9997,2 52467  53.2156 251.7822 0001328  93.8869 266.2274 15.08846571121022,6917.86,95.437,540.644,538.807,0.0
52467.0,STARLINK-3873,PAYLOAD,2024-07-13 21:16:55,15.08841157,0.0001295,53.2148,249.7005,90.0719,270.0421,3.223e-05,2.25e-06,0.0,0 STARLINK-3873,1 52467U 22049S   24195.88675295  .00000225  00000-0  32230-4 0  9995,2 52467  53.2148 249.7005 0001295  90.0719 270.0421 15.08841157121098,6917.877,95.437,540.638,538.846,0.0
52467.0,STARLINK-3873,PAYLOAD,2024-07-14 13:10:46,15.08845647,0.0001427,53.2161,246.7263,87.6674,272.4481,2.5405e-05,1.16e-06,0.0,0 STARLINK-3873,1 52467U 22049S   24196.54915032  .00000116  00000-0  25405-4 0  9990,2 52467  53.2161 246.7263 0001427  87.6674 272.4481 15.08845647121354,6917.863,95.437,540.715,538.741,0.0
52467.0,STARLINK-3873,PAYLOAD,2024-07-15 09:50:47,15.08840567,0.0001363,53.2162,242.8597,88.5953,271.5195,5.1225e-05,5.27e-06,0.0,0 STARLINK-3873,1 52467U 22049S   24197.41027162  .00000527  00000-0  51225-4 0  9990,2 52467  53.2162 242.8597 0001363  88.5953 271.5195 15.08840567121483,6917.879,95.438,540.687,538.801,0.0
52467.0,STARLINK-3873,PAYLOAD,2024-07-16 03:20:02,15.08834715,0.0001455,53.2159,239.5882,85.4711,274.6448,1.7919e-05,-3e-08,0.0,0 STARLINK-3873,1 52467U 22049S   24198.13891611 -.00000003  00000-0  17919-4 0  9990,2 52467  53.2159 239.5882 0001455  85.4711 274.6448 15.08834715121594,6917.897,95.438,540.768,538.755,0.0
52467.0,STARLINK-3873,PAYLOAD,2024-07-16 09:41:34,15.0884114,0.0001432,53.2157,238.3984,84.2336,275.8819,3.4637e-05,2.63e-06,0.0,0 STARLINK-3873,1 52467U 22049S   24198.40387207  .00000263  00000-0  34637-4 0  9994,2 52467  53.2157 238.3984 0001432  84.2336 275.8819 15.08841140121479,6917.877,95.437,540.733,538.751,0.0
52467.0,STARLINK-3873,PAYLOAD,2024-07-17 03:10:49,15.08831542,0.0001492,53.2156,235.1294,93.7381,266.3781,-2.5535e-05,-6.94e-06,0.0,0 STARLINK-3873,1 52467U 22049S   24199.13252224 -.00000694  00000-0 -25535-4 0  9992,2 52467  53.2156 235.1294 0001492  93.7381 266.3781 15.08831542121746,6917.906,95.438,540.803,538.739,0.0
52467.0,STARLINK-3873,PAYLOAD,2024-07-17 09:32:22,15.08832626,0.0001385,53.2159,233.9422,89.8583,270.2568,-4.9068e-05,-1.069e-05,0.0,0 STARLINK-3873,1 52467U 22049S   24199.39748398 -.00001069  00000-0 -49068-4 0  9996,2 52467  53.2159 233.9422 0001385  89.8583 270.2568 15.08832626121627,6917.903,95.438,540.726,538.81,0.0
52467.0,STARLINK-3873,PAYLOAD,2024-07-18 01:26:13,15.08839344,0.0001393,53.2158,230.9664,86.6855,273.4296,3.7479e-05,3.09e-06,0.0,0 STARLINK-3873,1 52467U 22049S   24200.05987968  .00000309  00000-0  37479-4 0  9997,2 52467  53.2158 230.9664 0001393  86.6855 273.4296 15.08839344121882,6917.882,95.438,540.711,538.784,0.0
52467.0,STARLINK-3873,PAYLOAD,2024-07-18 10:58:32,15.08842471,0.0001448,53.2161,229.1823,89.8927,270.2231,6.6453e-05,7.7e-06,0.0,0 STARLINK-3873,1 52467U 22049S   24200.45731715  .00000770  00000-0  66453-4 0  9994,2 52467  53.2161 229.1823 0001448  89.8927 270.2231 15.08842471121787,6917.873,95.437,540.74,538.736,0.0
52467.0,STARLINK-3873,PAYLOAD,2024-07-19 09:13:56,15.088335,0.0001371,53.2158,225.0183,95.9292,264.1856,4.8614e-05,4.86e-06,0.0,0 STARLINK-3873,1 52467U 22049S   24201.38468636  .00000486  00000-0  48614-4 0  9999,2 52467  53.2158 225.0183 0001371  95.9292 264.1856 15.08833500122087,6917.9,95.438,540.714,538.817,0.0
52467.0,STARLINK-3873,PAYLOAD,2024-07-19 18:46:15,15.0883813,0.0001417,53.216,223.2341,87.2128,272.9026,5.3525e-05,5.64e-06,0.0,0 STARLINK-3873,1 52467U 22049S   24201.78212401  .00000564  00000-0  53525-4 0  9994,2 52467  53.2160 223.2341 0001417  87.2128 272.9026 15.08838130121987,6917.886,95.438,540.731,538.771,0.0
52467.0,STARLINK-3873,PAYLOAD,2024-07-20 05:53:56,15.08846462,0.0001432,53.2157,221.1516,87.8348,272.2808,6.1229e-05,6.87e-06,0.0,0 STARLINK-3873,1 52467U 22049S   24202.24579802  .00000687  00000-0  61229-4 0  9993,2 52467  53.2157 221.1516 0001432  87.8348 272.2808 15.08846462122216,6917.861,95.437,540.716,538.735,0.0
52467.0,STARLINK-3873,PAYLOAD,2024-07-20 09:04:43,15.08847428,0.0001344,53.2154,220.557,87.761,272.3536,7.8142e-05,9.56e-06,0.0,0 STARLINK-3873,1 52467U 22049S   24202.37827624  .00000956  00000-0  78142-4 0  9996,2 52467  53.2154 220.5570 0001344  87.7610 272.3536 15.08847428122075,6917.858,95.437,540.652,538.793,0.0
52467.0,STARLINK-3873,PAYLOAD,2024-07-20 18:37:02,15.08844004,0.000135,53.2152,218.7719,90.1242,269.9905,5.2608e-05,5.5e-06,0.0,0 STARLINK-3873,1 52467U 22049S   24202.77571789  .00000550  00000-0  52608-4 0  9997,2 52467  53.2152 218.7719 0001350  90.1242 269.9905 15.08844004122139,6917.868,95.437,540.667,538.799,0.0
